[{"OBJECT_NAME":"WEINA 1B","OBJECT_ID":"2018-034E","EPOCH":"2026-03-09T23:56:55.989600","MEAN_MOTION":13.45363053,"ECCENTRICITY":0.02663902,"INCLINATION":63.399,"RA_OF_ASC_NODE":347.0415,"ARG_OF_PERICENTER":7.5353,"MEAN_ANOMALY":352.9555,"EPHEMERIS_TYPE":0,"CLASSIFICATION_TYPE":"U","NORAD_CAT_ID":43279,"ELEMENT_SET_NO":999,"REV_AT_EPOCH":38886,"BSTAR":-7.0683503e-5,"MEAN_MOTION_DOT":-1.42e-6,"MEAN_MOTION_DDOT":0},{"OBJECT_NAME":"ARIANE 5 DEB [SYLDA]","OBJECT_ID":"2019-080D","EPOCH":"2026-03-09T11:52:54.453216","MEAN_MOTION":7.47189479,"ECCENTRICITY":0.40077502,"INCLINATION":5.3107,"RA_OF_ASC_NODE":195.2099,"ARG_OF_PERICENTER":182.1596,"MEAN_ANOMALY":175.3918,"EPHEMERIS_TYPE":0,"CLASSIFICATION_TYPE":"U","NORAD_CAT_ID":44803,"ELEMENT_SET_NO":999,"REV_AT_EPOCH":9634,"BSTAR":0.008305722,"MEAN_MOTION_DOT":0.00237305,"MEAN_MOTION_DDOT":0}]
